[{"CCSDS_OMM_VERS":"2.0","COMMENT":"GENERATED VIA SPACE-TRACK.ORG API","CREATION_DATE":"2022-12-08T18:21:51","ORIGINATOR":"18 SPCS","OBJECT_NAME":"SJ-21 AKM","OBJECT_ID":"2021-094C","CENTER_NAME":"EARTH","REF_FRAME":"TEME","TIME_SYSTEM":"UTC","MEAN_ELEMENT_THEORY":"SGP4","EPOCH":"2022-12-08T13:07:48.065376","MEAN_MOTION":"0.99211658","ECCENTRICITY":"0.00069790","INCLINATION":"8.8443","RA_OF_ASC_NODE":"48.8122","ARG_OF_PERICENTER":"165.7442","MEAN_ANOMALY":"255.9889","EPHEMERIS_TYPE":"0","CLASSIFICATION_TYPE":"U","NORAD_CAT_ID":"49382","ELEMENT_SET_NO":"999","REV_AT_EPOCH":"472","BSTAR":"0.00000000000000","MEAN_MOTION_DOT":"-0.00000031","MEAN_MOTION_DDOT":"0.0000000000000","SEMIMAJOR_AXIS":"42464.567","PERIOD":"1451.442","APOAPSIS":"36116.068","PERIAPSIS":"36056.796","OBJECT_TYPE":"ROCKET BODY","RCS_SIZE":"LARGE","COUNTRY_CODE":"PRC","LAUNCH_DATE":"2021-10-24","SITE":"XSC","DECAY_DATE":null,"FILE":"3684614","GP_ID":"219776058","TLE_LINE0":"0 SJ-21 AKM","TLE_LINE1":"1 49382U 21094C   22342.54708409 -.00000031  00000-0  00000-0 0  9997","TLE_LINE2":"2 49382   8.8443  48.8122 0006979 165.7442 255.9889  0.99211658  4720"},{"CCSDS_OMM_VERS":"2.0","COMMENT":"GENERATED VIA SPACE-TRACK.ORG API","CREATION_DATE":"2022-12-08T03:13:54","ORIGINATOR":"18 SPCS","OBJECT_NAME":"SYRACUSE 4A","OBJECT_ID":"2021-095B","CENTER_NAME":"EARTH","REF_FRAME":"TEME","TIME_SYSTEM":"UTC","MEAN_ELEMENT_THEORY":"SGP4","EPOCH":"2022-12-07T13:26:53.409696","MEAN_MOTION":"1.00270848","ECCENTRICITY":"0.00015090","INCLINATION":"0.0124","RA_OF_ASC_NODE":"24.0594","ARG_OF_PERICENTER":"221.8174","MEAN_ANOMALY":"77.6743","EPHEMERIS_TYPE":"0","CLASSIFICATION_TYPE":"U","NORAD_CAT_ID":"49333","ELEMENT_SET_NO":"999","REV_AT_EPOCH":"506","BSTAR":"0.00000000000000","MEAN_MOTION_DOT":"0.00000150","MEAN_MOTION_DDOT":"0.0000000000000","SEMIMAJOR_AXIS":"42164.995","PERIOD":"1436.110","APOAPSIS":"35793.222","PERIAPSIS":"35780.497","OBJECT_TYPE":"PAYLOAD","RCS_SIZE":"MEDIUM","COUNTRY_CODE":"FR","LAUNCH_DATE":"2021-10-24","SITE":"FRGUI","DECAY_DATE":null,"FILE":"3684212","GP_ID":"219741731","TLE_LINE0":"0 SYRACUSE 4A","TLE_LINE1":"1 49333U 21095B   22341.56034039  .00000150  00000-0  00000-0 0  9997","TLE_LINE2":"2 49333   0.0124  24.0594 0001509 221.8174  77.6743  1.00270848  5060"},{"CCSDS_OMM_VERS":"2.0","COMMENT":"GENERATED VIA SPACE-TRACK.ORG API","CREATION_DATE":"2022-12-08T18:21:51","ORIGINATOR":"18 SPCS","OBJECT_NAME":"SES 17","OBJECT_ID":"2021-095A","CENTER_NAME":"EARTH","REF_FRAME":"TEME","TIME_SYSTEM":"UTC","MEAN_ELEMENT_THEORY":"SGP4","EPOCH":"2022-12-08T13:00:39.771072","MEAN_MOTION":"1.00269317","ECCENTRICITY":"0.00012370","INCLINATION":"0.0164","RA_OF_ASC_NODE":"19.8123","ARG_OF_PERICENTER":"238.5497","MEAN_ANOMALY":"306.9929","EPHEMERIS_TYPE":"0","CLASSIFICATION_TYPE":"U","NORAD_CAT_ID":"49332","ELEMENT_SET_NO":"999","REV_AT_EPOCH":"494","BSTAR":"0.00000000000000","MEAN_MOTION_DOT":"-0.00000256","MEAN_MOTION_DDOT":"0.0000000000000","SEMIMAJOR_AXIS":"42165.424","PERIOD":"1436.132","APOAPSIS":"35792.505","PERIAPSIS":"35782.073","OBJECT_TYPE":"PAYLOAD","RCS_SIZE":"LARGE","COUNTRY_CODE":"SES","LAUNCH_DATE":"2021-10-24","SITE":"FRGUI","DECAY_DATE":null,"FILE":"3684614","GP_ID":"219776551","TLE_LINE0":"0 SES 17","TLE_LINE1":"1 49332U 21095A   22342.54212698 -.00000256  00000-0  00000-0 0  9992","TLE_LINE2":"2 49332   0.0164  19.8123 0001237 238.5497 306.9929  1.00269317  4943"},{"CCSDS_OMM_VERS":"2.0","COMMENT":"GENERATED VIA SPACE-TRACK.ORG API","CREATION_DATE":"2022-12-08T18:21:51","ORIGINATOR":"18 SPCS","OBJECT_NAME":"SJ-21","OBJECT_ID":"2021-094A","CENTER_NAME":"EARTH","REF_FRAME":"TEME","TIME_SYSTEM":"UTC","MEAN_ELEMENT_THEORY":"SGP4","EPOCH":"2022-12-08T13:42:54.563040","MEAN_MOTION":"1.00156697","ECCENTRICITY":"0.00926550","INCLINATION":"8.7726","RA_OF_ASC_NODE":"48.9638","ARG_OF_PERICENTER":"20.0924","MEAN_ANOMALY":"2.4559","EPHEMERIS_TYPE":"0","CLASSIFICATION_TYPE":"U","NORAD_CAT_ID":"49330","ELEMENT_SET_NO":"999","REV_AT_EPOCH":"436","BSTAR":"0.00000000000000","MEAN_MOTION_DOT":"-0.00000236","MEAN_MOTION_DDOT":"0.0000000000000","SEMIMAJOR_AXIS":"42197.026","PERIOD":"1437.747","APOAPSIS":"36209.868","PERIAPSIS":"35427.915","OBJECT_TYPE":"PAYLOAD","RCS_SIZE":"LARGE","COUNTRY_CODE":"PRC","LAUNCH_DATE":"2021-10-24","SITE":"XSC","DECAY_DATE":null,"FILE":"3684614","GP_ID":"219776052","TLE_LINE0":"0 SJ-21","TLE_LINE1":"1 49330U 21094A   22342.57146485 -.00000236  00000-0  00000-0 0  9990","TLE_LINE2":"2 49330   8.7726  48.9638 0092655  20.0924   2.4559  1.00156697  4366"},{"CCSDS_OMM_VERS":"2.0","COMMENT":"GENERATED VIA SPACE-TRACK.ORG API","CREATION_DATE":"2022-12-08T18:21:51","ORIGINATOR":"18 SPCS","OBJECT_NAME":"CHINASAT 9B","OBJECT_ID":"2021-080A","CENTER_NAME":"EARTH","REF_FRAME":"TEME","TIME_SYSTEM":"UTC","MEAN_ELEMENT_THEORY":"SGP4","EPOCH":"2022-12-08T08:39:05.054688","MEAN_MOTION":"1.00266823","ECCENTRICITY":"0.00032520","INCLINATION":"0.0164","RA_OF_ASC_NODE":"348.3523","ARG_OF_PERICENTER":"248.6351","MEAN_ANOMALY":"71.2547","EPHEMERIS_TYPE":"0","CLASSIFICATION_TYPE":"U","NORAD_CAT_ID":"49125","ELEMENT_SET_NO":"999","REV_AT_EPOCH":"473","BSTAR":"0.00000000000000","MEAN_MOTION_DOT":"-0.00000297","MEAN_MOTION_DDOT":"0.0000000000000","SEMIMAJOR_AXIS":"42166.123","PERIOD":"1436.168","APOAPSIS":"35801.700","PERIAPSIS":"35774.276","OBJECT_TYPE":"PAYLOAD","RCS_SIZE":"LARGE","COUNTRY_CODE":"PRC","LAUNCH_DATE":"2021-09-09","SITE":"XSC","DECAY_DATE":null,"FILE":"3684614","GP_ID":"219773777","TLE_LINE0":"0 CHINASAT 9B","TLE_LINE1":"1 49125U 21080A   22342.36047517 -.00000297  00000-0  00000-0 0  9997","TLE_LINE2":"2 49125   0.0164 348.3523 0003252 248.6351  71.2547  1.00266823  4731"},{"CCSDS_OMM_VERS":"2.0","COMMENT":"GENERATED VIA SPACE-TRACK.ORG API","CREATION_DATE":"2022-12-08T15:46:13","ORIGINATOR":"18 SPCS","OBJECT_NAME":"TJS-7","OBJECT_ID":"2021-077A","CENTER_NAME":"EARTH","REF_FRAME":"TEME","TIME_SYSTEM":"UTC","MEAN_ELEMENT_THEORY":"SGP4","EPOCH":"2022-12-08T12:51:22.472928","MEAN_MOTION":"1.00272366","ECCENTRICITY":"0.00026520","INCLINATION":"0.1512","RA_OF_ASC_NODE":"116.8373","ARG_OF_PERICENTER":"94.2025","MEAN_ANOMALY":"319.6139","EPHEMERIS_TYPE":"0","CLASSIFICATION_TYPE":"U","NORAD_CAT_ID":"49115","ELEMENT_SET_NO":"999","REV_AT_EPOCH":"491","BSTAR":"0.00000000000000","MEAN_MOTION_DOT":"-0.00000109","MEAN_MOTION_DDOT":"0.0000000000000","SEMIMAJOR_AXIS":"42164.569","PERIOD":"1436.089","APOAPSIS":"35797.616","PERIAPSIS":"35775.252","OBJECT_TYPE":"PAYLOAD","RCS_SIZE":"LARGE","COUNTRY_CODE":"PRC","LAUNCH_DATE":"2021-08-24","SITE":"XSC","DECAY_DATE":null,"FILE":"3684588","GP_ID":"219752712","TLE_LINE0":"0 TJS-7","TLE_LINE1":"1 49115U 21077A   22342.53567677 -.00000109  00000-0  00000+0 0  9996","TLE_LINE2":"2 49115   0.1512 116.8373 0002652  94.2025 319.6139  1.00272366  4910"},{"CCSDS_OMM_VERS":"2.0","COMMENT":"GENERATED VIA SPACE-TRACK.ORG API","CREATION_DATE":"2022-12-07T05:56:12","ORIGINATOR":"18 SPCS","OBJECT_NAME":"CHINASAT 2E","OBJECT_ID":"2021-071A","CENTER_NAME":"EARTH","REF_FRAME":"TEME","TIME_SYSTEM":"UTC","MEAN_ELEMENT_THEORY":"SGP4","EPOCH":"2022-12-07T01:38:42.548928","MEAN_MOTION":"1.00272750","ECCENTRICITY":"0.00022850","INCLINATION":"0.0225","RA_OF_ASC_NODE":"269.3084","ARG_OF_PERICENTER":"28.5639","MEAN_ANOMALY":"260.6936","EPHEMERIS_TYPE":"0","CLASSIFICATION_TYPE":"U","NORAD_CAT_ID":"49062","ELEMENT_SET_NO":"999","REV_AT_EPOCH":"513","BSTAR":"0.00000000000000","MEAN_MOTION_DOT":"-0.00000277","MEAN_MOTION_DDOT":"0.0000000000000","SEMIMAJOR_AXIS":"42164.461","PERIOD":"1436.083","APOAPSIS":"35795.961","PERIAPSIS":"35776.692","OBJECT_TYPE":"PAYLOAD","RCS_SIZE":"LARGE","COUNTRY_CODE":"PRC","LAUNCH_DATE":"2021-08-05","SITE":"XSC","DECAY_DATE":null,"FILE":"3683419","GP_ID":"219702394","TLE_LINE0":"0 CHINASAT 2E","TLE_LINE1":"1 49062U 21071A   22341.06854802 -.00000277  00000-0  00000+0 0  9993","TLE_LINE2":"2 49062   0.0225 269.3084 0002285  28.5639 260.6936  1.00272750  5139"},{"CCSDS_OMM_VERS":"2.0","COMMENT":"GENERATED VIA SPACE-TRACK.ORG API","CREATION_DATE":"2022-12-08T18:21:51","ORIGINATOR":"18 SPCS","OBJECT_NAME":"EUTELSAT QUANTUM","OBJECT_ID":"2021-069B","CENTER_NAME":"EARTH","REF_FRAME":"TEME","TIME_SYSTEM":"UTC","MEAN_ELEMENT_THEORY":"SGP4","EPOCH":"2022-12-08T11:50:22.380576","MEAN_MOTION":"1.00269816","ECCENTRICITY":"0.00024670","INCLINATION":"0.0150","RA_OF_ASC_NODE":"358.7468","ARG_OF_PERICENTER":"266.7764","MEAN_ANOMALY":"37.0078","EPHEMERIS_TYPE":"0","CLASSIFICATION_TYPE":"U","NORAD_CAT_ID":"49056","ELEMENT_SET_NO":"999","REV_AT_EPOCH":"502","BSTAR":"0.00000000000000","MEAN_MOTION_DOT":"0.00000141","MEAN_MOTION_DDOT":"0.0000000000000","SEMIMAJOR_AXIS":"42165.284","PERIOD":"1436.125","APOAPSIS":"35797.551","PERIAPSIS":"35776.747","OBJECT_TYPE":"PAYLOAD","RCS_SIZE":"LARGE","COUNTRY_CODE":"EUTE","LAUNCH_DATE":"2021-07-30","SITE":"FRGUI","DECAY_DATE":null,"FILE":"3684614","GP_ID":"219775013","TLE_LINE0":"0 EUTELSAT QUANTUM","TLE_LINE1":"1 49056U 21069B   22342.49331459  .00000141  00000-0  00000-0 0  9999","TLE_LINE2":"2 49056   0.0150 358.7468 0002467 266.7764  37.0078  1.00269816  5025"}]